NORAD_CAT_ID,OBJECT_NAME,OBJECT_TYPE,EPOCH,MEAN_MOTION,ECCENTRICITY,INCLINATION,RA_OF_ASC_NODE,ARG_OF_PERICENTER,MEAN_ANOMALY,BSTAR,MEAN_MOTION_DOT,MEAN_MOTION_DDOT,TLE_LINE0,TLE_LINE1,TLE_LINE2,SEMIMAJOR_AXIS,PERIOD,APOGEE,PERIGEE,DECAYED
52544.0,STARLINK-3944,PAYLOAD,2024-06-29 21:22:05,15.08829565,0.0001152,53.2172,27.5437,97.1749,262.9374,-6.1141e-05,-1.26e-05,0.0,0 STARLINK-3944,1 52544U 22051M   24181.89033565 -.00001260  00000-0 -61141-4 0  9993,2 52544  53.2172  27.5437 0001152  97.1749 262.9374 15.08829565118109,6917.912,95.438,540.574,538.98,0.0
52544.0,STARLINK-3944,PAYLOAD,2024-06-30 06:54:23,15.08840257,0.0001192,53.2179,25.759,96.7579,263.3549,3.2727e-05,2.33e-06,0.0,0 STARLINK-3944,1 52544U 22051M   24182.28776734  .00000233  00000-0  32727-4 0  9994,2 52544  53.2179  25.7590 0001192  96.7579 263.3549 15.08840257118230,6917.88,95.438,540.569,538.92,0.0
52544.0,STARLINK-3944,PAYLOAD,2024-06-30 21:12:50,15.08858276,0.0001166,53.217,23.0824,106.8137,253.2983,0.00017815,2.55e-05,0.0,0 STARLINK-3944,1 52544U 22051M   24182.88391527  .00002550  00000-0  17815-3 0  9997,2 52544  53.2170  23.0824 0001166 106.8137 253.2983 15.08858276118326,6917.825,95.436,540.496,538.883,0.0
52544.0,STARLINK-3944,PAYLOAD,2024-07-01 13:06:42,15.08837131,0.0001092,53.2146,20.1043,118.544,241.5662,0.00027599,4.107e-05,0.0,0 STARLINK-3944,1 52544U 22051M   24183.54632618  .00004107  00000-0  27599-3 0  9990,2 52544  53.2146  20.1043 0001092 118.5440 241.5662 15.08837131118427,6917.889,95.438,540.51,538.999,0.0
52544.0,STARLINK-3944,PAYLOAD,2024-07-01 22:39:01,15.08846839,0.0001189,53.217,18.3222,105.8592,254.2532,0.0002639,3.915e-05,0.0,0 STARLINK-3944,1 52544U 22051M   24183.94376323  .00003915  00000-0  26390-3 0  9996,2 52544  53.2170  18.3222 0001189 105.8592 254.2532 15.08846839118417,6917.859,95.437,540.547,538.902,0.0
52544.0,STARLINK-3944,PAYLOAD,2024-07-02 12:57:29,15.08843379,0.0001403,53.2173,15.6446,112.9686,247.1454,6.075e-05,6.79e-06,0.0,0 STARLINK-3944,1 52544U 22051M   24184.53992360  .00000679  00000-0  60750-4 0  9990,2 52544  53.2173  15.6446 0001403 112.9686 247.1454 15.08843379118500,6917.87,95.437,540.706,538.764,0.0
52544.0,STARLINK-3944,PAYLOAD,2024-07-02 19:19:02,15.08843994,0.0001174,53.2176,14.4583,103.6394,256.4729,0.00035663,5.393e-05,0.0,0 STARLINK-3944,1 52544U 22051M   24184.80488456  .00005393  00000-0  35663-3 0  9998,2 52544  53.2176  14.4583 0001174 103.6394 256.4729 15.08843994118613,6917.868,95.437,540.545,538.921,0.0
52544.0,STARLINK-3944,PAYLOAD,2024-07-03 19:09:49,15.08847298,0.0001001,53.217,9.9969,88.8587,271.252,0.00048848,7.496e-05,0.0,0 STARLINK-3944,1 52544U 22051M   24185.79848615  .00007496  00000-0  48848-3 0  9999,2 52544  53.2170   9.9969 0001001  88.8587 271.2520 15.08847298118762,6917.858,95.437,540.416,539.031,0.0
52544.0,STARLINK-3944,PAYLOAD,2024-07-04 11:03:40,15.08842307,0.0001166,53.2177,7.0274,92.8221,267.2905,0.00020835,3.03e-05,0.0,0 STARLINK-3944,1 52544U 22051M   24186.46088737  .00003030  00000-0  20835-3 0  9991,2 52544  53.2177   7.0274 0001166  92.8221 267.2905 15.08842307118868,6917.873,95.437,540.545,538.932,0.0
52544.0,STARLINK-3944,PAYLOAD,2024-07-04 19:00:36,15.08841339,0.0001115,53.2184,5.5404,93.1152,266.9968,0.000124,1.686e-05,0.0,0 STARLINK-3944,1 52544U 22051M   24186.79208796  .00001686  00000-0  12400-3 0  9990,2 52544  53.2184   5.5404 0001115  93.1152 266.9968 15.08841339118842,6917.876,95.437,540.513,538.97,0.0
52544.0,STARLINK-3944,PAYLOAD,2024-07-05 10:54:27,15.08844377,0.0001081,53.2177,2.5656,83.3801,276.7314,0.00019059,2.747e-05,0.0,0 STARLINK-3944,1 52544U 22051M   24187.45448667  .00002747  00000-0  19059-3 0  9993,2 52544  53.2177   2.5656 0001081  83.3801 276.7314 15.08844377118944,6917.867,95.437,540.48,538.984,0.0
52544.0,STARLINK-3944,PAYLOAD,2024-07-05 18:51:22,15.08852068,0.0001036,53.2176,1.0792,87.3102,272.8008,0.00026524,3.937e-05,0.0,0 STARLINK-3944,1 52544U 22051M   24187.78568259  .00003937  00000-0  26524-3 0  9996,2 52544  53.2176   1.0792 0001036  87.3102 272.8008 15.08852068119063,6917.844,95.437,540.425,538.992,0.0
52544.0,STARLINK-3944,PAYLOAD,2024-07-06 04:23:41,15.08845764,8.43e-05,53.2156,359.2955,92.1938,267.9151,0.00012137,1.645e-05,0.0,0 STARLINK-3944,1 52544U 22051M   24188.18312347  .00001645  00000-0  12137-3 0  9995,2 52544  53.2156 359.2955 0000843  92.1938 267.9151 15.08845764119122,6917.863,95.437,540.311,539.145,0.0
52544.0,STARLINK-3944,PAYLOAD,2024-07-06 20:17:33,15.08839007,0.0001263,53.2183,356.3208,85.6364,274.4773,4.2435e-05,3.88e-06,0.0,0 STARLINK-3944,1 52544U 22051M   24188.84552935  .00000388  00000-0  42435-4 0  9995,2 52544  53.2183 356.3208 0001263  85.6364 274.4773 15.08839007119225,6917.883,95.438,540.622,538.875,0.0
52544.0,STARLINK-3944,PAYLOAD,2024-07-07 04:14:29,15.08836797,0.0001304,53.2184,354.8338,86.8438,273.2704,4.391e-05,4.11e-06,0.0,0 STARLINK-3944,1 52544U 22051M   24189.17673078  .00000411  00000-0  43910-4 0  9990,2 52544  53.2184 354.8338 0001304  86.8438 273.2704 15.08836797119206,6917.89,95.438,540.657,538.853,0.0
52544.0,STARLINK-3944,PAYLOAD,2024-07-08 04:05:16,15.08842241,0.0001307,53.217,350.3747,73.5676,286.546,0.00035453,5.359e-05,0.0,0 STARLINK-3944,1 52544U 22051M   24190.17033188  .00005359  00000-0  35453-3 0  9992,2 52544  53.2170 350.3747 0001307  73.5676 286.5460 15.08842241119427,6917.874,95.437,540.643,538.834,0.0
52544.0,STARLINK-3944,PAYLOAD,2024-07-08 10:26:49,15.08841988,0.0001392,53.2169,349.1857,70.9401,289.1742,0.0002446,3.607e-05,0.0,0 STARLINK-3944,1 52544U 22051M   24190.43529249  .00003607  00000-0  24460-3 0  9999,2 52544  53.2169 349.1857 0001392  70.9401 289.1742 15.08841988119399,6917.874,95.437,540.702,538.776,0.0
52544.0,STARLINK-3944,PAYLOAD,2024-07-08 16:48:21,15.08841805,0.0001181,53.2154,347.9925,79.3349,280.7776,0.00020916,3.043e-05,0.0,0 STARLINK-3944,1 52544U 22051M   24190.70025133  .00003043  00000-0  20916-3 0  9998,2 52544  53.2154 347.9925 0001181  79.3349 280.7776 15.08841805119432,6917.875,95.437,540.557,538.923,0.0
52544.0,STARLINK-3944,PAYLOAD,2024-07-09 03:56:03,15.08844594,0.0001127,53.2173,345.9116,86.5637,273.5484,0.00018988,2.736e-05,0.0,0 STARLINK-3944,1 52544U 22051M   24191.16393020  .00002736  00000-0  18988-3 0  9996,2 52544  53.2173 345.9116 0001127  86.5637 273.5484 15.08844594119572,6917.866,95.437,540.511,538.952,0.0
52544.0,STARLINK-3944,PAYLOAD,2024-07-09 19:49:54,15.08849306,0.0001306,53.219,342.9363,94.1269,265.9873,0.00010336,1.358e-05,0.0,0 STARLINK-3944,1 52544U 22051M   24191.82632702  .00001358  00000-0  10336-3 0  9990,2 52544  53.2190 342.9363 0001306  94.1269 265.9873 15.08849306119604,6917.852,95.437,540.62,538.813,0.0
52544.0,STARLINK-3944,PAYLOAD,2024-07-10 03:46:50,15.08842091,0.0001017,53.219,341.4501,99.2495,260.8612,-1.0296e-06,-3.04e-06,0.0,0 STARLINK-3944,1 52544U 22051M   24192.15752985 -.00000304  00000-0 -10296-5 0  9992,2 52544  53.2190 341.4501 0001017  99.2495 260.8612 15.08842091119720,6917.874,95.437,540.443,539.035,0.0
52544.0,STARLINK-3944,PAYLOAD,2024-07-10 10:08:23,15.08836573,0.0001312,53.218,340.2604,92.5046,267.6097,0.00015233,2.137e-05,0.0,0 STARLINK-3944,1 52544U 22051M   24192.42249532  .00002137  00000-0  15233-3 0  9999,2 52544  53.2180 340.2604 0001312  92.5046 267.6097 15.08836573119692,6917.891,95.438,540.663,538.848,0.0
52544.0,STARLINK-3944,PAYLOAD,2024-07-10 16:29:55,15.08843164,0.0001612,53.2149,339.0708,89.5648,270.5529,0.00013902,1.925e-05,0.0,0 STARLINK-3944,1 52544U 22051M   24192.68745231  .00001925  00000-0  13902-3 0  9999,2 52544  53.2149 339.0708 0001612  89.5648 270.5529 15.08843164119737,6917.871,95.437,540.851,538.621,0.0
52544.0,STARLINK-3944,PAYLOAD,2024-07-11 14:45:19,15.08843742,0.0001104,53.2179,334.9116,80.8302,279.2815,0.00018294,2.625e-05,0.0,0 STARLINK-3944,1 52544U 22051M   24193.61481272  .00002625  00000-0  18294-3 0  9992,2 52544  53.2179 334.9116 0001104  80.8302 279.2815 15.08843742119875,6917.869,95.437,540.498,538.97,0.0
52544.0,STARLINK-3944,PAYLOAD,2024-07-12 13:00:44,15.08838313,0.0001284,53.2193,330.7495,97.4463,262.6675,0.0001068,1.412e-05,0.0,0 STARLINK-3944,1 52544U 22051M   24194.54217664  .00001412  00000-0  10680-3 0  9991,2 52544  53.2193 330.7495 0001284  97.4463 262.6675 15.08838313120089,6917.886,95.438,540.639,538.862,0.0
52544.0,STARLINK-3944,PAYLOAD,2024-07-12 14:36:07,15.08839594,0.0001361,53.219,330.4525,100.0632,260.0513,0.00013213,1.816e-05,0.0,0 STARLINK-3944,1 52544U 22051M   24194.60841580  .00001816  00000-0  13213-3 0  9991,2 52544  53.2190 330.4525 0001361 100.0632 260.0513 15.08839594120021,6917.882,95.438,540.688,538.805,0.0
52544.0,STARLINK-3944,PAYLOAD,2024-07-12 16:11:30,15.08842457,0.000118,53.2175,330.1539,89.4271,270.6856,0.00017801,2.546e-05,0.0,0 STARLINK-3944,1 52544U 22051M   24194.67465531  .00002546  00000-0  17801-3 0  9994,2 52544  53.2175 330.1539 0001180  89.4271 270.6856 15.08842457120034,6917.873,95.437,540.554,538.922,0.0
52544.0,STARLINK-3944,PAYLOAD,2024-07-13 14:26:54,15.08844807,0.0001256,53.2175,325.9912,95.8671,264.2465,0.00016758,2.38e-05,0.0,0 STARLINK-3944,1 52544U 22051M   24195.60201436  .00002380  00000-0  16758-3 0  9996,2 52544  53.2175 325.9912 0001256  95.8671 264.2465 15.08844807120171,6917.866,95.437,540.6,538.862,0.0
52544.0,STARLINK-3944,PAYLOAD,2024-07-13 19:13:02,15.08856351,0.0001121,53.2173,325.0955,77.7309,282.3809,0.00038207,5.801e-05,0.0,0 STARLINK-3944,1 52544U 22051M   24195.80072890  .00005801  00000-0  38207-3 0  9992,2 52544  53.2173 325.0955 0001121  77.7309 282.3809 15.08856351120276,6917.83,95.437,540.471,538.92,0.0
52544.0,STARLINK-3944,PAYLOAD,2024-07-14 01:34:36,15.08842877,0.000153,53.2174,323.9059,75.0716,285.0445,0.00013037,1.788e-05,0.0,0 STARLINK-3944,1 52544U 22051M   24196.06569464  .00001788  00000-0  13037-3 0  9993,2 52544  53.2174 323.9059 0001530  75.0716 285.0445 15.08842877120315,6917.872,95.437,540.795,538.678,0.0
